IRIDIUM 126             
1 42809U 17039G   25251.91174588  .00000270  00000+0  89458-4 0  9997
2 42809  86.3941 111.2534 0001994  91.5381 268.6043 14.34217447429633
IRIDIUM 124             
1 42810U 17039H   25251.91583685  .00000153  00000+0  39493-4 0  9995
2 42810  86.4468  47.9319 0002260  90.1074 270.0386 14.43273489434548
IRIDIUM 128             
1 42811U 17039J   25251.97225495  .00000302  00000+0  10061-3 0  9999
2 42811  86.4009 142.7319 0002507  80.7858 279.3621 14.34218444429675
IRIDIUM 121             
1 42812U 17039K   25251.86100624  .00000251  00000+0  82686-4 0  9990
2 42812  86.3940 111.3003 0002230  84.0344 276.1106 14.34217581429507
IRIDIUM 133             
1 42955U 17061A   25251.93419470 -.00000013  00000+0 -11752-4 0  9997
2 42955  86.4013 142.8583 0002101  84.3063 275.8373 14.34215747414460
IRIDIUM 100             
1 42956U 17061B   25251.92785542  .00000055  00000+0  12449-4 0  9991
2 42956  86.4011 142.7865 0002242  87.9974 272.1479 14.34217032414463
IRIDIUM 122             
1 42957U 17061C   25251.96591279  .00000279  00000+0  92546-4 0  9992
2 42957  86.4009 142.7700 0002183  85.3338 274.8108 14.34217746414470
IRIDIUM 129             
1 42958U 17061D   25251.78197615  .00000337  00000+0  11319-3 0  9992
2 42958  86.4011 142.9107 0001702  82.4218 277.7171 14.34218379414462
